ONEWEB-0594             
1 54660U 22166U   26201.81276223  .00000018  00000+0  12978-4 0  9999
2 54660  87.9228 237.2994 0002242  98.0603 262.0786 13.21824527176001
ONEWEB-0595             
1 54661U 22166V   26201.78921764 -.00000073  00000+0 -20896-3 0  9993
2 54661  87.9239 237.2874 0002287  94.2231 265.9164 13.21825809175976
ONEWEB-0596             
1 54662U 22166W   26201.15840348  .00000089  00000+0  18287-3 0  9999
2 54662  87.9230 237.4223 0002147  94.8837 265.2542 13.21824219175899
ONEWEB-0597             
1 54663U 22166X   26201.36699140  .00000017  00000+0  98613-5 0  9999
2 54663  87.9229 237.3834 0001930  94.6492 265.4862 13.21824216175927
ONEWEB-0600             
1 54664U 22166Y   26201.80267661  .00000040  00000+0  64229-4 0  9999
2 54664  87.9231 237.2879 0002013 101.1937 258.9423 13.21826173175957
ONEWEB-0601             
1 54665U 22166Z   26201.79425830  .00000022  00000+0  21074-4 0  9993
2 54665  87.9229 237.3054 0001752  95.7913 264.3420 13.21825519176145
ONEWEB-0602             
1 54666U 22166AA  26201.83546771  .00000024  00000+0  27762-4 0  9999
2 54666  87.9226 237.3031 0001972 102.0963 258.0392 13.21824215175991
ONEWEB-0603             
1 54667U 22166AB  26201.16008227  .00000056  00000+0  10368-3 0  9993
2 54667  87.9237 237.3978 0001979  96.3929 263.7430 13.21824525175831
ONEWEB-0604             
1 54668U 22166AC  26201.37539672  .00000063  00000+0  12149-3 0  9997
2 54668  87.9241 237.3710 0002101  96.5971 263.5402 13.21824975175823
ONEWEB-0605             
1 54669U 22166AD  26201.14157961  .00000059  00000+0  11109-3 0  9990
2 54669  87.9229 237.4280 0001746  78.9829 281.1501 13.21824502175869
ONEWEB-0606             
1 54670U 22166AE  26201.16344690 -.00000056  00000+0 -16814-3 0  9998
2 54670  87.9229 237.4359 0002180  98.0699 262.0683 13.21825881175926
ONEWEB-0607             
1 54671U 22166AF  26201.35690701  .00000049  00000+0  88243-4 0  9993
2 54671  87.9238 237.3708 0001936  97.4023 262.7331 13.21826170175925
ONEWEB-0608             
1 54672U 22166AG  26201.81779950  .00000002  00000+0 -26178-4 0  9998
2 54672  87.9242 237.2770 0001606  87.4654 272.6664 13.21823556175993
ONEWEB-0610             
1 54673U 22166AH  26201.34344938  .00000057  00000+0  10754-3 0  9992
2 54673  87.9230 237.3818 0001450  96.7292 263.4007 13.21826393175837
ONEWEB-0611             
1 54674U 22166AJ  26201.79087441 -.00000090  00000+0 -24981-3 0  9991
2 54674  87.9229 237.2885 0002140  95.3209 264.8170 13.21825138175886
ONEWEB-0612             
1 54675U 22166AK  26201.35016759  .00000058  00000+0  10974-3 0  9997
2 54675  87.9243 237.3757 0001895  93.7688 266.3662 13.21826994175818
ONEWEB-0615             
1 54676U 22166AL  26201.32998043 -.00000029  00000+0 -10160-3 0  9997
2 54676  87.9234 237.3913 0002246  99.5073 260.6315 13.21823532175824
ONEWEB-0655             
1 54677U 22166AM  26201.38212978 -.00000030  00000+0 -10459-3 0  9993
2 54677  87.9229 237.3817 0001933 101.0456 259.0895 13.21824005175829
ONEWEB-0659             
1 54678U 22166AN  26201.85313286 -.00000098  00000+0 -26968-3 0  9996
2 54678  87.9230 237.2872 0002049  93.1026 267.0342 13.21824428175976
ONEWEB-0685             
1 54679U 22166AP  26201.39833532  .00006550  00000+0  15778-1 0  9999
2 54679  87.9156 237.3689 0002264  89.6420 270.4974 13.21989312175803
ONEWEB-0712             
1 54680U 22166AQ  26201.42266654  .00000144  00000+0  34418-3 0  9997
2 54680  87.9077 222.1729 0001882 106.6322 253.5016 13.16595990176438
ONEWEB-0714             
1 54681U 22166AR  26201.32831103 -.00000030  00000+0 -10465-3 0  9996
2 54681  87.9229 237.3814 0002108 103.8053 256.3315 13.21825701175910
