OBJECT_NAME,OBJECT_ID,EPOCH,MEAN_MOTION,ECCENTRICITY,INCLINATION,RA_OF_ASC_NODE,ARG_OF_PERICENTER,MEAN_ANOMALY,EPHEMERIS_TYPE,CLASSIFICATION_TYPE,NORAD_CAT_ID,ELEMENT_SET_NO,REV_AT_EPOCH,BSTAR,MEAN_MOTION_DOT,MEAN_MOTION_DDOT
ONEWEB-0594,2022-166U,2026-07-20T19:30:22.656672,13.21824527,.0002242,87.9228,237.2994,98.0603,262.0786,0,U,54660,999,17600,.12978E-4,.18E-6,0
ONEWEB-0595,2022-166V,2026-07-20T18:56:28.404096,13.21825809,.0002287,87.9239,237.2874,94.2231,265.9164,0,U,54661,999,17597,-.20896E-3,-.73E-6,0
ONEWEB-0596,2022-166W,2026-07-20T03:48:06.060672,13.21824219,.00021478,87.9230,237.4223,94.8837,265.2542,0,U,54662,999,17589,.18287427E-3,.89E-6,0
ONEWEB-0597,2022-166X,2026-07-20T08:48:28.056960,13.21824216,.00019308,87.9229,237.3834,94.6492,265.4862,0,U,54663,999,17592,.9861303E-5,.17E-6,0
ONEWEB-0600,2022-166Y,2026-07-20T19:15:51.259104,13.21826173,.0002013,87.9231,237.2879,101.1937,258.9423,0,U,54664,999,17595,.64229E-4,.4E-6,0
ONEWEB-0601,2022-166Z,2026-07-20T19:03:43.917120,13.21825519,.0001752,87.9229,237.3054,95.7913,264.3420,0,U,54665,999,17614,.21074E-4,.22E-6,0
ONEWEB-0602,2022-166AA,2026-07-20T20:03:04.410144,13.21824215,.0001972,87.9226,237.3031,102.0963,258.0392,0,U,54666,999,17599,.27762E-4,.24E-6,0
ONEWEB-0603,2022-166AB,2026-07-20T03:50:31.108128,13.21824525,.00019795,87.9237,237.3978,96.3929,263.7430,0,U,54667,999,17583,.10368171E-3,.56E-6,0
ONEWEB-0604,2022-166AC,2026-07-20T09:00:34.276608,13.21824975,.00021015,87.9241,237.3710,96.5971,263.5402,0,U,54668,999,17582,.12149183E-3,.63E-6,0
ONEWEB-0605,2022-166AD,2026-07-20T03:23:52.478304,13.21824502,.00017462,87.9229,237.4280,78.9829,281.1501,0,U,54669,999,17586,.11108551E-3,.59E-6,0
ONEWEB-0606,2022-166AE,2026-07-20T03:55:21.812160,13.21825881,.00021805,87.9229,237.4359,98.0699,262.0683,0,U,54670,999,17592,-.16813844E-3,-.56E-6,0
ONEWEB-0607,2022-166AF,2026-07-20T08:33:56.765664,13.21826170,.0001936,87.9238,237.3708,97.4023,262.7331,0,U,54671,999,17592,.88242985E-4,.49E-6,0
ONEWEB-0608,2022-166AG,2026-07-20T19:37:37.876800,13.21823556,.0001606,87.9242,237.2770,87.4654,272.6664,0,U,54672,999,17599,-.26178E-4,.2E-7,0
ONEWEB-0610,2022-166AH,2026-07-20T08:14:34.026432,13.21826393,.00014507,87.9230,237.3818,96.7292,263.4007,0,U,54673,999,17583,.10754379E-3,.57E-6,0
ONEWEB-0611,2022-166AJ,2026-07-20T18:58:51.549024,13.21825138,.000214,87.9229,237.2885,95.3209,264.8170,0,U,54674,999,17588,-.24981E-3,-.9E-6,0
ONEWEB-0612,2022-166AK,2026-07-20T08:24:14.479776,13.21826994,.00018954,87.9243,237.3757,93.7688,266.3662,0,U,54675,999,17581,.1097434E-3,.58E-6,0
ONEWEB-0615,2022-166AL,2026-07-20T07:55:10.309152,13.21823532,.00022462,87.9234,237.3913,99.5073,260.6315,0,U,54676,999,17582,-.10159646E-3,-.29E-6,0
ONEWEB-0655,2022-166AM,2026-07-20T09:10:16.012992,13.21824005,.00019331,87.9229,237.3817,101.0456,259.0895,0,U,54677,999,17582,-.10458571E-3,-.3E-6,0
ONEWEB-0659,2022-166AN,2026-07-20T20:28:30.679104,13.21824428,.0002049,87.9230,237.2872,93.1026,267.0342,0,U,54678,999,17597,-.26968E-3,-.98E-6,0
ONEWEB-0685,2022-166AP,2026-07-20T09:33:36.171648,13.21989312,.00022645,87.9156,237.3689,89.6420,270.4974,0,U,54679,999,17580,.15777761E-1,.655E-4,0
ONEWEB-0712,2022-166AQ,2026-07-20T10:08:38.389056,13.16595990,.0001882,87.9077,222.1729,106.6322,253.5016,0,U,54680,999,17643,.34418E-3,.144E-5,0
ONEWEB-0714,2022-166AR,2026-07-20T07:52:46.072992,13.21825701,.00021082,87.9229,237.3814,103.8053,256.3315,0,U,54681,999,17591,-.10465376E-3,-.3E-6,0
